[{"OBJECT_NAME":"LEMUR-2-JK0903EM1407","OBJECT_ID":"2023-174CJ","EPOCH":"2026-03-29T04:54:22.800384","MEAN_MOTION":15.47733562,"ECCENTRICITY":0.000534,"INCLINATION":97.39,"RA_OF_ASC_NODE":176.6948,"ARG_OF_PERICENTER":53.4758,"MEAN_ANOMALY":306.6983,"EPHEMERIS_TYPE":0,"CLASSIFICATION_TYPE":"U","NORAD_CAT_ID":58336,"ELEMENT_SET_NO":999,"REV_AT_EPOCH":13334,"BSTAR":0.00071798,"MEAN_MOTION_DOT":0.00037225,"MEAN_MOTION_DDOT":0},{"OBJECT_NAME":"LEMUR-2-MJR092620","OBJECT_ID":"2023-174CN","EPOCH":"2026-03-28T23:17:52.483776","MEAN_MOTION":15.42642947,"ECCENTRICITY":0.0007669,"INCLINATION":97.3966,"RA_OF_ASC_NODE":176.6849,"ARG_OF_PERICENTER":57.8015,"MEAN_ANOMALY":302.3975,"EPHEMERIS_TYPE":0,"CLASSIFICATION_TYPE":"U","NORAD_CAT_ID":58340,"ELEMENT_SET_NO":999,"REV_AT_EPOCH":13327,"BSTAR":0.0003377,"MEAN_MOTION_DOT":0.00014642,"MEAN_MOTION_DDOT":0},{"OBJECT_NAME":"LEMUR-2-NIMBUS2000","OBJECT_ID":"2024-022A","EPOCH":"2026-03-29T03:44:44.104992","MEAN_MOTION":15.37469389,"ECCENTRICITY":0.0010241,"INCLINATION":97.4211,"RA_OF_ASC_NODE":297.2595,"ARG_OF_PERICENTER":52.4059,"MEAN_ANOMALY":307.8113,"EPHEMERIS_TYPE":0,"CLASSIFICATION_TYPE":"U","NORAD_CAT_ID":58899,"ELEMENT_SET_NO":999,"REV_AT_EPOCH":11996,"BSTAR":0.00061147,"MEAN_MOTION_DOT":0.00022462,"MEAN_MOTION_DDOT":0},{"OBJECT_NAME":"LEMUR-2-VALHALLA","OBJECT_ID":"2024-022B","EPOCH":"2026-03-29T03:19:07.787712","MEAN_MOTION":15.37219362,"ECCENTRICITY":0.00107,"INCLINATION":97.4208,"RA_OF_ASC_NODE":297.2674,"ARG_OF_PERICENTER":48.1441,"MEAN_ANOMALY":312.0714,"EPHEMERIS_TYPE":0,"CLASSIFICATION_TYPE":"U","NORAD_CAT_ID":58900,"ELEMENT_SET_NO":999,"REV_AT_EPOCH":11996,"BSTAR":0.00052664,"MEAN_MOTION_DOT":0.00019174,"MEAN_MOTION_DDOT":0},{"OBJECT_NAME":"LEMUR-2-OBA-NI-JESU","OBJECT_ID":"2024-022D","EPOCH":"2026-03-29T03:17:49.826400","MEAN_MOTION":15.6984364,"ECCENTRICITY":0.0003086,"INCLINATION":97.4022,"RA_OF_ASC_NODE":307.2516,"ARG_OF_PERICENTER":9.059,"MEAN_ANOMALY":351.0727,"EPHEMERIS_TYPE":0,"CLASSIFICATION_TYPE":"U","NORAD_CAT_ID":58902,"ELEMENT_SET_NO":999,"REV_AT_EPOCH":12064,"BSTAR":0.0011498,"MEAN_MOTION_DOT":0.00139026,"MEAN_MOTION_DDOT":0},{"OBJECT_NAME":"LEMUR-2-CAEL","OBJECT_ID":"2024-022E","EPOCH":"2026-03-29T03:30:50.388192","MEAN_MOTION":15.38386563,"ECCENTRICITY":0.0008619,"INCLINATION":97.4196,"RA_OF_ASC_NODE":298.0797,"ARG_OF_PERICENTER":33.7631,"MEAN_ANOMALY":326.4161,"EPHEMERIS_TYPE":0,"CLASSIFICATION_TYPE":"U","NORAD_CAT_ID":58903,"ELEMENT_SET_NO":999,"REV_AT_EPOCH":12002,"BSTAR":0.00061846,"MEAN_MOTION_DOT":0.00023397,"MEAN_MOTION_DDOT":0},{"OBJECT_NAME":"LEMUR-2-JOHNNYTRUONG","OBJECT_ID":"2024-043BA","EPOCH":"2026-03-28T23:19:18.357600","MEAN_MOTION":15.54610099,"ECCENTRICITY":0.0005265,"INCLINATION":97.5285,"RA_OF_ASC_NODE":235.1089,"ARG_OF_PERICENTER":121.0214,"MEAN_ANOMALY":239.1557,"EPHEMERIS_TYPE":0,"CLASSIFICATION_TYPE":"U","NORAD_CAT_ID":59146,"ELEMENT_SET_NO":999,"REV_AT_EPOCH":11555,"BSTAR":0.00064379,"MEAN_MOTION_DOT":0.00042634,"MEAN_MOTION_DDOT":0},{"OBJECT_NAME":"LEMUR-2-TOMATOKECHUP","OBJECT_ID":"2024-149D","EPOCH":"2026-03-29T04:41:58.731360","MEAN_MOTION":15.34307209,"ECCENTRICITY":0.0002944,"INCLINATION":97.3819,"RA_OF_ASC_NODE":170.1377,"ARG_OF_PERICENTER":136.2466,"MEAN_ANOMALY":223.9011,"EPHEMERIS_TYPE":0,"CLASSIFICATION_TYPE":"U","NORAD_CAT_ID":60471,"ELEMENT_SET_NO":999,"REV_AT_EPOCH":8989,"BSTAR":0.00050322,"MEAN_MOTION_DOT":0.00016655,"MEAN_MOTION_DDOT":0},{"OBJECT_NAME":"LEMUR-2-STELLA","OBJECT_ID":"2024-149BT","EPOCH":"2026-03-29T05:06:06.335712","MEAN_MOTION":15.09989295,"ECCENTRICITY":0.0001129,"INCLINATION":97.6752,"RA_OF_ASC_NODE":170.4273,"ARG_OF_PERICENTER":104.3536,"MEAN_ANOMALY":255.7819,"EPHEMERIS_TYPE":0,"CLASSIFICATION_TYPE":"U","NORAD_CAT_ID":60533,"ELEMENT_SET_NO":999,"REV_AT_EPOCH":8842,"BSTAR":0.0011185,"MEAN_MOTION_DOT":0.00018136,"MEAN_MOTION_DDOT":0},{"OBJECT_NAME":"LEMUR-2-MARHISYAM","OBJECT_ID":"2024-149BW","EPOCH":"2026-03-29T03:59:01.508352","MEAN_MOTION":15.09520897,"ECCENTRICITY":0.0002715,"INCLINATION":97.6901,"RA_OF_ASC_NODE":170.7431,"ARG_OF_PERICENTER":66.2252,"MEAN_ANOMALY":293.9261,"EPHEMERIS_TYPE":0,"CLASSIFICATION_TYPE":"U","NORAD_CAT_ID":60536,"ELEMENT_SET_NO":999,"REV_AT_EPOCH":8840,"BSTAR":0.0011455,"MEAN_MOTION_DOT":0.0001834,"MEAN_MOTION_DDOT":0},{"OBJECT_NAME":"LEMUR-2-AHMED-ASRAR","OBJECT_ID":"2024-149DN","EPOCH":"2026-03-29T04:58:05.928384","MEAN_MOTION":15.10870268,"ECCENTRICITY":7.75e-5,"INCLINATION":97.701,"RA_OF_ASC_NODE":172.5812,"ARG_OF_PERICENTER":241.6779,"MEAN_ANOMALY":118.4372,"EPHEMERIS_TYPE":0,"CLASSIFICATION_TYPE":"U","NORAD_CAT_ID":60576,"ELEMENT_SET_NO":999,"REV_AT_EPOCH":8848,"BSTAR":0.00089981,"MEAN_MOTION_DOT":0.00014928,"MEAN_MOTION_DDOT":0},{"OBJECT_NAME":"LEMUR-2-LLOYD","OBJECT_ID":"2024-149DP","EPOCH":"2026-03-29T04:12:14.251680","MEAN_MOTION":15.07633539,"ECCENTRICITY":0.0004746,"INCLINATION":97.6767,"RA_OF_ASC_NODE":169.3558,"ARG_OF_PERICENTER":73.7128,"MEAN_ANOMALY":286.4621,"EPHEMERIS_TYPE":0,"CLASSIFICATION_TYPE":"U","NORAD_CAT_ID":60577,"ELEMENT_SET_NO":999,"REV_AT_EPOCH":8833,"BSTAR":0.0011125,"MEAN_MOTION_DOT":0.00016915,"MEAN_MOTION_DDOT":0},{"OBJECT_NAME":"LEMUR-2-SQUIRRELCOMM","OBJECT_ID":"2024-149DQ","EPOCH":"2026-03-29T03:52:27.584832","MEAN_MOTION":15.0617023,"ECCENTRICITY":0.0004602,"INCLINATION":97.6738,"RA_OF_ASC_NODE":169.3798,"ARG_OF_PERICENTER":335.0459,"MEAN_ANOMALY":25.0545,"EPHEMERIS_TYPE":0,"CLASSIFICATION_TYPE":"U","NORAD_CAT_ID":60578,"ELEMENT_SET_NO":999,"REV_AT_EPOCH":8835,"BSTAR":0.00058064,"MEAN_MOTION_DOT":8.445e-5,"MEAN_MOTION_DDOT":0},{"OBJECT_NAME":"LEMUR-2-SIERRINI","OBJECT_ID":"2024-149DR","EPOCH":"2026-03-29T04:08:26.762208","MEAN_MOTION":15.09188349,"ECCENTRICITY":0.0006573,"INCLINATION":97.6858,"RA_OF_ASC_NODE":170.5176,"ARG_OF_PERICENTER":96.4178,"MEAN_ANOMALY":263.78,"EPHEMERIS_TYPE":0,"CLASSIFICATION_TYPE":"U","NORAD_CAT_ID":60579,"ELEMENT_SET_NO":999,"REV_AT_EPOCH":8838,"BSTAR":0.0011795,"MEAN_MOTION_DOT":0.00018723,"MEAN_MOTION_DDOT":0},{"OBJECT_NAME":"LEMUR-2-WILSON","OBJECT_ID":"2025-009CP","EPOCH":"2026-03-29T04:16:58.502496","MEAN_MOTION":14.94796046,"ECCENTRICITY":0.0001898,"INCLINATION":97.7054,"RA_OF_ASC_NODE":168.0622,"ARG_OF_PERICENTER":330.6654,"MEAN_ANOMALY":29.4459,"EPHEMERIS_TYPE":0,"CLASSIFICATION_TYPE":"U","NORAD_CAT_ID":62694,"ELEMENT_SET_NO":999,"REV_AT_EPOCH":6540,"BSTAR":0.00036003,"MEAN_MOTION_DOT":3.86e-5,"MEAN_MOTION_DDOT":0},{"OBJECT_NAME":"LEMUR-2-STAR-FOX","OBJECT_ID":"2025-009CR","EPOCH":"2026-03-29T05:03:40.336992","MEAN_MOTION":15.01271457,"ECCENTRICITY":0.0003521,"INCLINATION":97.7003,"RA_OF_ASC_NODE":170.4886,"ARG_OF_PERICENTER":118.9958,"MEAN_ANOMALY":241.1619,"EPHEMERIS_TYPE":0,"CLASSIFICATION_TYPE":"U","NORAD_CAT_ID":62696,"ELEMENT_SET_NO":999,"REV_AT_EPOCH":6555,"BSTAR":0.0011121,"MEAN_MOTION_DOT":0.00014259,"MEAN_MOTION_DDOT":0}]
