LEMUR-2-JK0903EM1407    
1 58336U 23174CJ  26088.20443056  .00037225  00000+0  71798-3 0  9993
2 58336  97.3900 176.6948 0005340  53.4758 306.6983 15.47733562133342
LEMUR-2-MJR092620       
1 58340U 23174CN  26087.97074634  .00014642  00000+0  33770-3 0  9999
2 58340  97.3966 176.6849 0007669  57.8015 302.3975 15.42642947133276
LEMUR-2-NIMBUS2000      
1 58899U 24022A   26088.15606603  .00022462  00000+0  61147-3 0  9997
2 58899  97.4211 297.2595 0010241  52.4059 307.8113 15.37469389119961
LEMUR-2-VALHALLA        
1 58900U 24022B   26088.13828458  .00019174  00000+0  52664-3 0  9992
2 58900  97.4208 297.2674 0010700  48.1441 312.0714 15.37219362119964
LEMUR-2-OBA-NI-JESU     
1 58902U 24022D   26088.13738225  .00139026  00000+0  11498-2 0  9994
2 58902  97.4022 307.2516 0003086   9.0590 351.0727 15.69843640120648
LEMUR-2-CAEL            
1 58903U 24022E   26088.14641653  .00023397  00000+0  61846-3 0  9990
2 58903  97.4196 298.0797 0008619  33.7631 326.4161 15.38386563120028
LEMUR-2-JOHNNYTRUONG    
1 59146U 24043BA  26087.97174025  .00042634  00000+0  64379-3 0  9996
2 59146  97.5285 235.1089 0005265 121.0214 239.1557 15.54610099115559
LEMUR-2-TOMATOKECHUP    
1 60471U 24149D   26088.19581865  .00016655  00000+0  50322-3 0  9992
2 60471  97.3819 170.1377 0002944 136.2466 223.9011 15.34307209 89896
LEMUR-2-STELLA          
1 60533U 24149BT  26088.21257333  .00018136  00000+0  11185-2 0  9993
2 60533  97.6752 170.4273 0001129 104.3536 255.7819 15.09989295 88420
LEMUR-2-MARHISYAM       
1 60536U 24149BW  26088.16598968  .00018340  00000+0  11455-2 0  9999
2 60536  97.6901 170.7431 0002715  66.2252 293.9261 15.09520897 88403
LEMUR-2-AHMED-ASRAR     
1 60576U 24149DN  26088.20701306  .00014928  00000+0  89981-3 0  9998
2 60576  97.7010 172.5812 0000775 241.6779 118.4372 15.10870268 88483
LEMUR-2-LLOYD           
1 60577U 24149DP  26088.17516495  .00016915  00000+0  11125-2 0  9990
2 60577  97.6767 169.3558 0004746  73.7128 286.4621 15.07633539 88338
LEMUR-2-SQUIRRELCOMM    
1 60578U 24149DQ  26088.16143038  .00008445  00000+0  58064-3 0  9992
2 60578  97.6738 169.3798 0004602 335.0459  25.0545 15.06170230 88352
LEMUR-2-SIERRINI        
1 60579U 24149DR  26088.17253197  .00018723  00000+0  11795-2 0  9991
2 60579  97.6858 170.5176 0006573  96.4178 263.7800 15.09188349 88386
LEMUR-2-WILSON          
1 62694U 25009CP  26088.17845489  .00003860  00000+0  36003-3 0  9994
2 62694  97.7054 168.0622 0001898 330.6654  29.4459 14.94796046 65407
LEMUR-2-STAR-FOX        
1 62696U 25009CR  26088.21088353  .00014259  00000+0  11121-2 0  9997
2 62696  97.7003 170.4886 0003521 118.9958 241.1619 15.01271457 65551
